SL-16 R/B               
1 22285U 92093B   25322.15051574  .00000107  00000+0  78985-4 0  9992
2 22285  71.0217 238.4106 0002394 143.7279 216.4006 14.15427685697378
COSMOS 2228             
1 22286U 92094A   25322.15345140  .00002917  00000+0  25350-3 0  9997
2 22286  82.5181 344.0593 0016926 321.6659  38.3359 14.96572195759372
SL-16 R/B               
1 22566U 93016B   25321.82645294  .00000387  00000+0  22321-3 0  9993
2 22566  71.0068  90.1253 0008817 143.4938 216.6787 14.15284549686348
COSMOS 2242             
1 22626U 93024A   25322.15574873  .00002835  00000+0  25030-3 0  9990
2 22626  82.5213  13.3391 0015403 324.7609  35.2593 14.95967198763715
SL-16 R/B               
1 22803U 93059B   25322.16952800  .00000058  00000+0  52711-4 0  9998
2 22803  70.9902 246.2955 0016501  12.2987 347.8536 14.17208709663739
COSMOS 2278             
1 23087U 94023A   25321.64065227  .00000458  00000+0  26391-3 0  9993
2 23087  71.0551  49.5195 0009776 211.9026 148.1506 14.14343064628960
SL-16 R/B               
1 23088U 94023B   25322.16246225 -.00000152  00000+0 -53936-4 0  9990
2 23088  70.9990 305.0997 0001211 145.3073 214.8129 14.14991536630311
SL-16 R/B               
1 23343U 94074B   25322.12185674  .00000727  00000+0  10448-3 0  9992
2 23343  97.7235 352.4015 0005668 214.3419 213.0091 14.79249669670757
SL-16 R/B               
1 23405U 94077B   25322.11690076  .00000036  00000+0  43066-4 0  9996
2 23405  70.9827 227.2115 0004268 304.2045  55.8673 14.15547777600443
ARIANE 40+ R/B          
1 23561U 95021B   25322.20310521  .00000483  00000+0  16829-3 0  9995
2 23561  98.4681  30.0850 0007877 113.5401 307.6703 14.39668685603208
SL-16 R/B               
1 23705U 95058B   25321.69433244 -.00000193  00000+0 -74070-4 0  9998
2 23705  71.0228  55.3853 0014996 287.3664  72.5819 14.15476237552007
