CCSDS_OMM_VERS = 2.0
CREATION_DATE  = 
ORIGINATOR     = 

OBJECT_NAME    = SL-16 R/B
OBJECT_ID      = 1992-093B
CENTER_NAME    = EARTH
REF_FRAME      = TEME
TIME_SYSTEM    = UTC
MEAN_ELEMENT_THEORY = SGP/SGP4

EPOCH          = 2025-11-18T03:36:44.559936
MEAN_MOTION    = 14.15427685
ECCENTRICITY   = .0002394
INCLINATION    = 71.0217
RA_OF_ASC_NODE = 238.4106
ARG_OF_PERICENTER = 143.7279
MEAN_ANOMALY   = 216.4006

EPHEMERIS_TYPE = 0
CLASSIFICATION_TYPE = U
NORAD_CAT_ID   = 22285
ELEMENT_SET_NO = 999
REV_AT_EPOCH   = 69737
BSTAR          = .78985E-4
MEAN_MOTION_DOT = .107E-5
MEAN_MOTION_DDOT = 0

CCSDS_OMM_VERS = 2.0
CREATION_DATE  = 
ORIGINATOR     = 

OBJECT_NAME    = COSMOS 2228
OBJECT_ID      = 1992-094A
CENTER_NAME    = EARTH
REF_FRAME      = TEME
TIME_SYSTEM    = UTC
MEAN_ELEMENT_THEORY = SGP/SGP4

EPOCH          = 2025-11-18T03:40:58.200960
MEAN_MOTION    = 14.96572195
ECCENTRICITY   = .0016926
INCLINATION    = 82.5181
RA_OF_ASC_NODE = 344.0593
ARG_OF_PERICENTER = 321.6659
MEAN_ANOMALY   = 38.3359

EPHEMERIS_TYPE = 0
CLASSIFICATION_TYPE = U
NORAD_CAT_ID   = 22286
ELEMENT_SET_NO = 999
REV_AT_EPOCH   = 75937
BSTAR          = .2535E-3
MEAN_MOTION_DOT = .2917E-4
MEAN_MOTION_DDOT = 0

CCSDS_OMM_VERS = 2.0
CREATION_DATE  = 
ORIGINATOR     = 

OBJECT_NAME    = SL-16 R/B
OBJECT_ID      = 1993-016B
CENTER_NAME    = EARTH
REF_FRAME      = TEME
TIME_SYSTEM    = UTC
MEAN_ELEMENT_THEORY = SGP/SGP4

EPOCH          = 2025-11-17T19:50:05.534016
MEAN_MOTION    = 14.15284549
ECCENTRICITY   = .0008817
INCLINATION    = 71.0068
RA_OF_ASC_NODE = 90.1253
ARG_OF_PERICENTER = 143.4938
MEAN_ANOMALY   = 216.6787

EPHEMERIS_TYPE = 0
CLASSIFICATION_TYPE = U
NORAD_CAT_ID   = 22566
ELEMENT_SET_NO = 999
REV_AT_EPOCH   = 68634
BSTAR          = .22321E-3
MEAN_MOTION_DOT = .387E-5
MEAN_MOTION_DDOT = 0

CCSDS_OMM_VERS = 2.0
CREATION_DATE  = 
ORIGINATOR     = 

OBJECT_NAME    = COSMOS 2242
OBJECT_ID      = 1993-024A
CENTER_NAME    = EARTH
REF_FRAME      = TEME
TIME_SYSTEM    = UTC
MEAN_ELEMENT_THEORY = SGP/SGP4

EPOCH          = 2025-11-18T03:44:16.690272
MEAN_MOTION    = 14.95967198
ECCENTRICITY   = .0015403
INCLINATION    = 82.5213
RA_OF_ASC_NODE = 13.3391
ARG_OF_PERICENTER = 324.7609
MEAN_ANOMALY   = 35.2593

EPHEMERIS_TYPE = 0
CLASSIFICATION_TYPE = U
NORAD_CAT_ID   = 22626
ELEMENT_SET_NO = 999
REV_AT_EPOCH   = 76371
BSTAR          = .2503E-3
MEAN_MOTION_DOT = .2835E-4
MEAN_MOTION_DDOT = 0

CCSDS_OMM_VERS = 2.0
CREATION_DATE  = 
ORIGINATOR     = 

OBJECT_NAME    = SL-16 R/B
OBJECT_ID      = 1993-059B
CENTER_NAME    = EARTH
REF_FRAME      = TEME
TIME_SYSTEM    = UTC
MEAN_ELEMENT_THEORY = SGP/SGP4

EPOCH          = 2025-11-18T04:04:07.219200
MEAN_MOTION    = 14.17208709
ECCENTRICITY   = .0016501
INCLINATION    = 70.9902
RA_OF_ASC_NODE = 246.2955
ARG_OF_PERICENTER = 12.2987
MEAN_ANOMALY   = 347.8536

EPHEMERIS_TYPE = 0
CLASSIFICATION_TYPE = U
NORAD_CAT_ID   = 22803
ELEMENT_SET_NO = 999
REV_AT_EPOCH   = 66373
BSTAR          = .52711E-4
MEAN_MOTION_DOT = .58E-6
MEAN_MOTION_DDOT = 0

CCSDS_OMM_VERS = 2.0
CREATION_DATE  = 
ORIGINATOR     = 

OBJECT_NAME    = COSMOS 2278
OBJECT_ID      = 1994-023A
CENTER_NAME    = EARTH
REF_FRAME      = TEME
TIME_SYSTEM    = UTC
MEAN_ELEMENT_THEORY = SGP/SGP4

EPOCH          = 2025-11-17T15:22:32.356128
MEAN_MOTION    = 14.14343064
ECCENTRICITY   = .0009776
INCLINATION    = 71.0551
RA_OF_ASC_NODE = 49.5195
ARG_OF_PERICENTER = 211.9026
MEAN_ANOMALY   = 148.1506

EPHEMERIS_TYPE = 0
CLASSIFICATION_TYPE = U
NORAD_CAT_ID   = 23087
ELEMENT_SET_NO = 999
REV_AT_EPOCH   = 62896
BSTAR          = .26391E-3
MEAN_MOTION_DOT = .458E-5
MEAN_MOTION_DDOT = 0

CCSDS_OMM_VERS = 2.0
CREATION_DATE  = 
ORIGINATOR     = 

OBJECT_NAME    = SL-16 R/B
OBJECT_ID      = 1994-023B
CENTER_NAME    = EARTH
REF_FRAME      = TEME
TIME_SYSTEM    = UTC
MEAN_ELEMENT_THEORY = SGP/SGP4

EPOCH          = 2025-11-18T03:53:56.738400
MEAN_MOTION    = 14.14991536
ECCENTRICITY   = .0001211
INCLINATION    = 70.9990
RA_OF_ASC_NODE = 305.0997
ARG_OF_PERICENTER = 145.3073
MEAN_ANOMALY   = 214.8129

EPHEMERIS_TYPE = 0
CLASSIFICATION_TYPE = U
NORAD_CAT_ID   = 23088
ELEMENT_SET_NO = 999
REV_AT_EPOCH   = 63031
BSTAR          = -.53936E-4
MEAN_MOTION_DOT = -.152E-5
MEAN_MOTION_DDOT = 0

CCSDS_OMM_VERS = 2.0
CREATION_DATE  = 
ORIGINATOR     = 

OBJECT_NAME    = SL-16 R/B
OBJECT_ID      = 1994-074B
CENTER_NAME    = EARTH
REF_FRAME      = TEME
TIME_SYSTEM    = UTC
MEAN_ELEMENT_THEORY = SGP/SGP4

EPOCH          = 2025-11-18T02:55:28.422336
MEAN_MOTION    = 14.79249669
ECCENTRICITY   = .0005668
INCLINATION    = 97.7235
RA_OF_ASC_NODE = 352.4015
ARG_OF_PERICENTER = 214.3419
MEAN_ANOMALY   = 213.0091

EPHEMERIS_TYPE = 0
CLASSIFICATION_TYPE = U
NORAD_CAT_ID   = 23343
ELEMENT_SET_NO = 999
REV_AT_EPOCH   = 67075
BSTAR          = .10448E-3
MEAN_MOTION_DOT = .727E-5
MEAN_MOTION_DDOT = 0

CCSDS_OMM_VERS = 2.0
CREATION_DATE  = 
ORIGINATOR     = 

OBJECT_NAME    = SL-16 R/B
OBJECT_ID      = 1994-077B
CENTER_NAME    = EARTH
REF_FRAME      = TEME
TIME_SYSTEM    = UTC
MEAN_ELEMENT_THEORY = SGP/SGP4

EPOCH          = 2025-11-18T02:48:20.225664
MEAN_MOTION    = 14.15547777
ECCENTRICITY   = .0004268
INCLINATION    = 70.9827
RA_OF_ASC_NODE = 227.2115
ARG_OF_PERICENTER = 304.2045
MEAN_ANOMALY   = 55.8673

EPHEMERIS_TYPE = 0
CLASSIFICATION_TYPE = U
NORAD_CAT_ID   = 23405
ELEMENT_SET_NO = 999
REV_AT_EPOCH   = 60044
BSTAR          = .43066E-4
MEAN_MOTION_DOT = .36E-6
MEAN_MOTION_DDOT = 0

CCSDS_OMM_VERS = 2.0
CREATION_DATE  = 
ORIGINATOR     = 

OBJECT_NAME    = ARIANE 40+ R/B
OBJECT_ID      = 1995-021B
CENTER_NAME    = EARTH
REF_FRAME      = TEME
TIME_SYSTEM    = UTC
MEAN_ELEMENT_THEORY = SGP/SGP4

EPOCH          = 2025-11-18T04:52:28.290144
MEAN_MOTION    = 14.39668685
ECCENTRICITY   = .0007877
INCLINATION    = 98.4681
RA_OF_ASC_NODE = 30.0850
ARG_OF_PERICENTER = 113.5401
MEAN_ANOMALY   = 307.6703

EPHEMERIS_TYPE = 0
CLASSIFICATION_TYPE = U
NORAD_CAT_ID   = 23561
ELEMENT_SET_NO = 999
REV_AT_EPOCH   = 60320
BSTAR          = .16829E-3
MEAN_MOTION_DOT = .483E-5
MEAN_MOTION_DDOT = 0

CCSDS_OMM_VERS = 2.0
CREATION_DATE  = 
ORIGINATOR     = 

OBJECT_NAME    = SL-16 R/B
OBJECT_ID      = 1995-058B
CENTER_NAME    = EARTH
REF_FRAME      = TEME
TIME_SYSTEM    = UTC
MEAN_ELEMENT_THEORY = SGP/SGP4

EPOCH          = 2025-11-17T16:39:50.322816
MEAN_MOTION    = 14.15476237
ECCENTRICITY   = .0014996
INCLINATION    = 71.0228
RA_OF_ASC_NODE = 55.3853
ARG_OF_PERICENTER = 287.3664
MEAN_ANOMALY   = 72.5819

EPHEMERIS_TYPE = 0
CLASSIFICATION_TYPE = U
NORAD_CAT_ID   = 23705
ELEMENT_SET_NO = 999
REV_AT_EPOCH   = 55200
BSTAR          = -.7407E-4
MEAN_MOTION_DOT = -.193E-5
MEAN_MOTION_DDOT = 0

